{"type": "FeatureCollection", "features": [ {"type": "Feature", "properties": {"norad_id": 66535, "name": "STARLINK-35514", "group": "last-30-days", "lat": 22.06698879186116, "lon": -178.934554790995, "alt_km": 416.43977680166427, "timestamp": "2025-12-17T09:00:15.889495+00:00", "meta": {"OBJECT_NAME": "STARLINK-35514", "OBJECT_ID": "2025-265V", "EPOCH": "2025-12-16T06:03:35.066880", "MEAN_MOTION": 15.4855693, "ECCENTRICITY": 0.00071198, "INCLINATION": 43.0007, "RA_OF_ASC_NODE": 33.4013, "ARG_OF_PERICENTER": 221.1006, "MEAN_ANOMALY": 138.9318, "EPHEMERIS_TYPE": 0, "CLASSIFICATION_TYPE": "U", "NORAD_CAT_ID": 66535, "ELEMENT_SET_NO": 999, "REV_AT_EPOCH": 430, "BSTAR": 0.00099142149, "MEAN_MOTION_DOT": 0.0005424, "MEAN_MOTION_DDOT": 0}, "tle": {"line1": "1 66535U 25265V   25350.25248920  .00054240  00000+0  99142-3 0  9994", "line2": "2 66535  43.0007  33.4013 0007119 221.1006 138.9318 15.48556930  4301"}}, "geometry": {"type": "Point", "coordinates": [-178.934554790995, 22.06698879186116]}}, {"type": "Feature", "properties": {"norad_id": 66536, "name": "STARLINK-35640", "group": "last-30-days", "lat": 12.257324228657932, "lon": -166.66737466476948, "alt_km": 413.0161178232929, "timestamp": "2025-12-17T09:00:15.889506+00:00", "meta": {"OBJECT_NAME": "STARLINK-35640", "OBJECT_ID": "2025-265W", "EPOCH": "2025-12-16T12:12:48.773376", "MEAN_MOTION": 15.50602173, "ECCENTRICITY": 0.00017718, "INCLINATION": 43.0004, "RA_OF_ASC_NODE": 31.8836, "ARG_OF_PERICENTER": 262.7593, "MEAN_ANOMALY": 97.3066, "EPHEMERIS_TYPE": 0, "CLASSIFICATION_TYPE": "U", "NORAD_CAT_ID": 66536, "ELEMENT_SET_NO": 999, "REV_AT_EPOCH": 434, "BSTAR": 0.0011261208, "MEAN_MOTION_DOT": 0.0006634, "MEAN_MOTION_DDOT": 0}, "tle": {"line1": "1 66536U 25265W   25350.50889784  .00066340  00000+0  11261-2 0  9991", "line2": "2 66536  43.0004  31.8836 0001771 262.7593  97.3066 15.50602173  4340"}}, "geometry": {"type": "Point", "coordinates": [-166.66737466476948, 12.257324228657932]}}, {"type": "Feature", "properties": {"norad_id": 66537, "name": "STARLINK-35582", "group": "last-30-days", "lat": 11.094174155849817, "lon": -165.33741798006392, "alt_km": 413.2346264555499, "timestamp": "2025-12-17T09:00:15.889517+00:00", "meta": {"OBJECT_NAME": "STARLINK-35582", "OBJECT_ID": "2025-265X", "EPOCH": "2025-12-16T19:56:07.038528", "MEAN_MOTION": 15.50592233, "ECCENTRICITY": 3.211e-05, "INCLINATION": 42.9968, "RA_OF_ASC_NODE": 29.9977, "ARG_OF_PERICENTER": 353.3855, "MEAN_ANOMALY": 6.7001, "EPHEMERIS_TYPE": 0, "CLASSIFICATION_TYPE": "U", "NORAD_CAT_ID": 66537, "ELEMENT_SET_NO": 999, "REV_AT_EPOCH": 439, "BSTAR": 0.00096456575, "MEAN_MOTION_DOT": 0.00056682, "MEAN_MOTION_DDOT": 0}, "tle": {"line1": "1 66537U 25265X   25350.83063702  .00056682  00000+0  96457-3 0  9991", "line2": "2 66537  42.9968  29.9977 0000321 353.3855   6.7001 15.50592233  4393"}}, "geometry": {"type": "Point", "coordinates": [-165.33741798006392, 11.094174155849817]}}, {"type": "Feature", "properties": {"norad_id": 66538, "name": "STARLINK-35577", "group": "last-30-days", "lat": 9.683541472729248, "lon": -163.74700249083853, "alt_km": 413.22179060920917, "timestamp": "2025-12-17T09:00:15.889527+00:00", "meta": {"OBJECT_NAME": "STARLINK-35577", "OBJECT_ID": "2025-265Y", "EPOCH": "2025-12-16T12:11:49.515936", "MEAN_MOTION": 15.50605591, "ECCENTRICITY": 0.00015875, "INCLINATION": 43.0004, "RA_OF_ASC_NODE": 31.8772, "ARG_OF_PERICENTER": 260.3654, "MEAN_ANOMALY": 99.7027, "EPHEMERIS_TYPE": 0, "CLASSIFICATION_TYPE": "U", "NORAD_CAT_ID": 66538, "ELEMENT_SET_NO": 999, "REV_AT_EPOCH": 434, "BSTAR": 0.001191121, "MEAN_MOTION_DOT": 0.00070232, "MEAN_MOTION_DDOT": 0}, "tle": {"line1": "1 66538U 25265Y   25350.50821199  .00070232  00000+0  11911-2 0  9996", "line2": "2 66538  43.0004  31.8772 0001587 260.3654  99.7027 15.50605591  4348"}}, "geometry": {"type": "Point", "coordinates": [-163.74700249083853, 9.683541472729248]}}, {"type": "Feature", "properties": {"norad_id": 66539, "name": "STARLINK-35697", "group": "last-30-days", "lat": 8.570990303474892, "lon": -162.5071566658616, "alt_km": 413.85261190419715, "timestamp": "2025-12-17T09:00:15.889538+00:00", "meta": {"OBJECT_NAME": "STARLINK-35697", "OBJECT_ID": "2025-265Z", "EPOCH": "2025-12-16T22:00:03.000096", "MEAN_MOTION": 15.50508039, "ECCENTRICITY": 0.00016341, "INCLINATION": 43.0011, "RA_OF_ASC_NODE": 29.4826, "ARG_OF_PERICENTER": 261.6769, "MEAN_ANOMALY": 223.3598, "EPHEMERIS_TYPE": 0, "CLASSIFICATION_TYPE": "U", "NORAD_CAT_ID": 66539, "ELEMENT_SET_NO": 999, "REV_AT_EPOCH": 566, "BSTAR": 0.00077096123, "MEAN_MOTION_DOT": 0.00045033, "MEAN_MOTION_DDOT": 0}, "tle": {"line1": "1 66539U 25265Z   25350.91670139  .00045033  00000+0  77096-3 0  9996", "line2": "2 66539  43.0011  29.4826 0001634 261.6769 223.3598 15.50508039  5667"}}, "geometry": {"type": "Point", "coordinates": [-162.5071566658616, 8.570990303474892]}}, {"type": "Feature", "properties": {"norad_id": 66540, "name": "STARLINK-35818", "group": "last-30-days", "lat": 7.309179329876441, "lon": -161.11393745611144, "alt_km": 413.9751147407378, "timestamp": "2025-12-17T09:00:15.889550+00:00", "meta": {"OBJECT_NAME": "STARLINK-35818", "OBJECT_ID": "2025-265AA", "EPOCH": "2025-12-16T22:00:03.000096", "MEAN_MOTION": 15.50528211, "ECCENTRICITY": 0.00015177, "INCLINATION": 43.0011, "RA_OF_ASC_NODE": 29.4797, "ARG_OF_PERICENTER": 264.8125, "MEAN_ANOMALY": 222.0569, "EPHEMERIS_TYPE": 0, "CLASSIFICATION_TYPE": "U", "NORAD_CAT_ID": 66540, "ELEMENT_SET_NO": 999, "REV_AT_EPOCH": 566, "BSTAR": 0.00085438417, "MEAN_MOTION_DOT": 0.00050011, "MEAN_MOTION_DDOT": 0}, "tle": {"line1": "1 66540U 25265AA  25350.91670139  .00050011  00000+0  85438-3 0  9999", "line2": "2 66540  43.0011  29.4797 0001517 264.8125 222.0569 15.50528211  5665"}}, "geometry": {"type": "Point", "coordinates": [-161.11393745611144, 7.309179329876441]}}, {"type": "Feature", "properties": {"norad_id": 66541, "name": "STARLINK-35796", "group": "last-30-days", "lat": 27.865990739119393, "lon": 61.66801944346597, "alt_km": 440.1541185902488, "timestamp": "2025-12-17T09:00:15.889560+00:00", "meta": {"OBJECT_NAME": "STARLINK-35796", "OBJECT_ID": "2025-265AB", "EPOCH": "2025-12-16T22:00:03.000096", "MEAN_MOTION": 15.40678469, "ECCENTRICITY": 9.325e-05, "INCLINATION": 43.0012, "RA_OF_ASC_NODE": 29.7447, "ARG_OF_PERICENTER": 252.1631, "MEAN_ANOMALY": 125.1857, "EPHEMERIS_TYPE": 0, "CLASSIFICATION_TYPE": "U", "NORAD_CAT_ID": 66541, "ELEMENT_SET_NO": 999, "REV_AT_EPOCH": 566, "BSTAR": 0.00057785643, "MEAN_MOTION_DOT": 0.00023893, "MEAN_MOTION_DDOT": 0}, "tle": {"line1": "1 66541U 25265AB  25350.91670139  .00023893  00000+0  57786-3 0  9993", "line2": "2 66541  43.0012  29.7447 0000932 252.1631 125.1857 15.40678469  5667"}}, "geometry": {"type": "Point", "coordinates": [61.66801944346597, 27.865990739119393]}}, {"type": "Feature", "properties": {"norad_id": 66542, "name": "STARLINK-35833", "group": "last-30-days", "lat": 42.902353166398285, "lon": 121.22639773436762, "alt_km": 437.99854815555864, "timestamp": "2025-12-17T09:00:15.889573+00:00", "meta": {"OBJECT_NAME": "STARLINK-35833", "OBJECT_ID": "2025-265AC", "EPOCH": "2025-12-16T22:00:03.000096", "MEAN_MOTION": 15.40672266, "ECCENTRICITY": 0.00011157, "INCLINATION": 43.0011, "RA_OF_ASC_NODE": 29.6245, "ARG_OF_PERICENTER": 269.3252, "MEAN_ANOMALY": 157.7993, "EPHEMERIS_TYPE": 0, "CLASSIFICATION_TYPE": "U", "NORAD_CAT_ID": 66542, "ELEMENT_SET_NO": 999, "REV_AT_EPOCH": 566, "BSTAR": 0.00065867834, "MEAN_MOTION_DOT": 0.00027284, "MEAN_MOTION_DDOT": 0}, "tle": {"line1": "1 66542U 25265AC  25350.91670139  .00027284  00000+0  65868-3 0  9992", "line2": "2 66542  43.0011  29.6245 0001115 269.3252 157.7993 15.40672266  5666"}}, "geometry": {"type": "Point", "coordinates": [121.22639773436762, 42.902353166398285]}}, {"type": "Feature", "properties": {"norad_id": 66543, "name": "STARLINK-35315", "group": "last-30-days", "lat": 15.83124685482322, "lon": -170.88488835933896, "alt_km": 426.80442289902203, "timestamp": "2025-12-17T09:00:15.889583+00:00", "meta": {"OBJECT_NAME": "STARLINK-35315", "OBJECT_ID": "2025-265AD", "EPOCH": "2025-12-16T19:55:44.759424", "MEAN_MOTION": 15.46259964, "ECCENTRICITY": 0.00056428, "INCLINATION": 43.0008, "RA_OF_ASC_NODE": 29.9969, "ARG_OF_PERICENTER": 44.8567, "MEAN_ANOMALY": 315.2747, "EPHEMERIS_TYPE": 0, "CLASSIFICATION_TYPE": "U", "NORAD_CAT_ID": 66543, "ELEMENT_SET_NO": 999, "REV_AT_EPOCH": 439, "BSTAR": -0.0028568555, "MEAN_MOTION_DOT": -0.00141875, "MEAN_MOTION_DDOT": 0}, "tle": {"line1": "1 66543U 25265AD  25350.83037916 -.00141875  00000+0 -28569-2 0  9995", "line2": "2 66543  43.0008  29.9969 0005642  44.8567 315.2747 15.46259964  4392"}}, "geometry": {"type": "Point", "coordinates": [-170.88488835933896, 15.83124685482322]}}, {"type": "Feature", "properties": {"norad_id": 66544, "name": "STARLINK-35728", "group": "last-30-days", "lat": 2.00359194458828, "lon": -155.37353770818777, "alt_km": 414.51726769032484, "timestamp": "2025-12-17T09:00:15.889594+00:00", "meta": {"OBJECT_NAME": "STARLINK-35728", "OBJECT_ID": "2025-265AE", "EPOCH": "2025-12-16T19:52:38.781696", "MEAN_MOTION": 15.50582497, "ECCENTRICITY": 9.002e-05, "INCLINATION": 43.0018, "RA_OF_ASC_NODE": 29.978, "ARG_OF_PERICENTER": 284.9798, "MEAN_ANOMALY": 75.0963, "EPHEMERIS_TYPE": 0, "CLASSIFICATION_TYPE": "U", "NORAD_CAT_ID": 66544, "ELEMENT_SET_NO": 999, "REV_AT_EPOCH": 439, "BSTAR": 0.0012758444, "MEAN_MOTION_DOT": 0.00075237, "MEAN_MOTION_DDOT": 0}, "tle": {"line1": "1 66544U 25265AE  25350.82822664  .00075237  00000+0  12758-2 0  9996", "line2": "2 66544  43.0018  29.9780 0000900 284.9798  75.0963 15.50582497  4396"}}, "geometry": {"type": "Point", "coordinates": [-155.37353770818777, 2.00359194458828]}}]}